#dP2021  2 22 12  0  0.00000000      96 __u+U ITR00 EXT  IAC
## 2146 129600.00000000   900.00000000 59267 0.5000000000000
+  117   C06C07C08C09C10C11C12C13C14C16C19C20C21C22C23C24C25
+        C26C27C28C29C30C32C33C34C35C36C37C38C39C40C41C42C43
+        C44C45C46E01E02E03E04E05E07E08E09E11E12E13E14E15E18
+        E19E21E24E25E26E27E30E31E33E36G01G02G03G04G05G06G07
+        G08G09G10G11G12G13G14G15G16G17G18G19G20G21G22G23G24
+        G25G26G27G28G29G30G31G32J01J02J03R01R02R03R04R05R07
+        R08R09R11R12R13R14R15R16R17R18R19R20R21R22R24  0  0
++        11 11 10 10 10  8  9  9  7 10  8  7  9  8  9 10  9
++        10  8  8  8  8  8  9 10  9  8  7 10 10 10  9  7  8
++         8  9  8  8  8  8  7  7  7  7  7  8  8  8  7  8  7
++         7  8  8  8  8  8  7  8  7  8  9  7  8  8  8  8  8
++         8  7  7  9  7  8  7  7  8  7  8  8  8  8  7  8  7
++         7  8  7  8  7  8  8  8 10 10 10  8  7  9  8 10  9
++         8  8  8  8  9  8  7  7  8  8  8  8  9  9  7  0  0
%c M  cc GPS ccc cccc cccc cccc cccc ccccc ccccc ccccc ccccc
%c cc cc ccc ccc cccc cccc cccc cccc ccccc ccccc ccccc ccccc
%f  0.0000000  0.000000000  0.00000000000  0.000000000000000
%f  0.0000000  0.000000000  0.00000000000  0.000000000000000
%i    0    0    0    0      0      0      0      0         0
%i    0    0    0    0      0      0      0      0         0
/* IAC                                ULTRA-RAPID PREDICTION
/* S/V CLOCKS ARE ALIGNED TO GNSS TIME                      
/* G:C1WC2W R:C1PC2P E:C1XC5X C:C2IC6I J:C1CC2S             
/* PCV:IGS14_2134 OL/AL:FES2004  NONE     YN ORB:CoN CLK:CoN
*  2021 02 22 23  0  0.00000000
PC06  -7117.015445  25867.976163  33064.074332    115.915501
PC07 -24224.154746  27953.854862 -20421.907524   -353.036198
PC08 -14095.337874  37883.228450 -11182.149962   -909.658088
PC09   6563.007419  32912.646804  26050.413989    714.614946
PC10 -10265.351257  29287.689492 -28508.620925    -82.067844
PC11   9137.353140  23625.129675 -11602.497414   -907.396829
PC12  -6693.083507  15117.823846 -22438.560301    817.101162
PC13  -4956.823575  41594.454846   3485.926389    152.926762
PC14   1900.199060  15852.249882  22915.109062    199.917765
PC16  -4012.063708  26837.367227  32420.628716   -706.669188
PC19 -12873.136283 -12632.116920 -21271.616284    737.724807
PC20   7534.751926 -16327.290433 -21316.044893   -918.820859
PC21 -24445.483421  10391.200669   8606.175352   -851.418591
PC22 -26422.853810  -1555.592760  -8878.456591   -889.890301
PC23  16195.809950   2767.341217 -22559.415824   -875.876555
PC24  -8383.242831  26523.110503  -2033.385616   -766.457520
PC25   6530.694712  20328.323657 -17964.266803   -943.009867
PC26 -16537.691715  17736.483019  13765.477725    944.699195
PC27  14557.555765  -6973.039019  22751.063754    487.802756
PC28  21435.998923  11251.292347  13884.176521   -106.284610
PC29 -16586.258907 -22222.072905   3100.430221    356.086577
PC30  -1148.979063 -20812.896247  18540.490959    447.161111
PC32  24370.429417 -10546.428910  -8552.659735   -899.158960
PC33  12828.200209  12654.294184  21311.979524   -956.427478
PC34   1728.520152  21178.593397 -18108.570804   -733.878678
PC35 -21845.889607 -10719.571987 -13626.525802   -405.356514
PC36  -5809.676382 -20735.899561  17769.193697   -751.431548
PC37  17145.534810 -16669.758627 -14391.810534   -867.745678
PC38 -12890.771590  39163.677832  -8502.291136    131.742005
PC39  -2060.043870  27018.530874  32347.171504     28.734699
PC40 -16826.115564  24525.995025 -29941.366508    134.301830
PC41  26319.089130   1722.386566   9178.060890   -929.796859
PC42  -8297.052696  16376.684754  21064.431930   -888.328602
PC43  16187.373602  22473.041491  -3540.290602   -610.011077
PC44 -14520.254588   7402.685983 -22651.654946     52.477865
PC45 -16099.633947  -2643.837970  22635.167378    369.352065
PC46   7786.107883 -26668.197695   2856.311573    392.986893
PE01  21240.093515 -20603.713321    951.429771  -1051.801474
PE02 -21165.105989  20648.553366  -1074.980519    200.355779
PE03 -17360.584261  10619.982787  21495.873416   -401.637533
PE04  -3673.821623 -18172.825421 -23070.171984   -715.380184
PE05 -28503.787269  -3275.172704   7280.939529   -302.368264
PE07  22913.238532  15130.404778  11049.753675   -504.340265
PE08   4143.997420  18059.454054  23081.436021   6042.982596
PE09 -23134.640008 -14878.411281 -10951.464811   5756.487147
PE11 -14276.734540 -22324.966943 -13167.323185   6286.477213
PE12  -2900.738707 -28822.490517   6036.027055   5342.748107
PE13  14164.796270  22604.780376  12850.546317    412.528655
PE14  22539.030954   9427.872175   5018.119283  -1339.239133
PE15   3072.129771  28827.981568  -5983.765130    827.967081
PE18 -26836.109066   -772.264130 -17145.772133  -1464.126524
PE19  19317.157039  -9102.564411 -20496.473109    210.520627
PE21  23697.989295  -7200.225248 -16222.297441   -649.958402
PE24 -11908.715533 -11542.897881  24501.145246   -757.956917
PE25 -23644.416729   7027.725987  16355.733277   -527.009411
PE26  16964.038022   2312.343157  24157.383937   2117.217824
PE27  12531.185284  10871.097868 -24516.394548     24.217372
PE30  -6750.719418  22652.217840 -17817.368196   3159.547323
PE31   5944.499833 -22456.481244  18353.160834   -478.548126
PE33   9835.930252 -18059.619948  21297.473907   -465.937248
PE36 -16903.783567  -3100.926882 -24086.974063    437.018266
PG01  13334.470886 -10354.534863  20165.998257    755.631579
PG02 -13334.725283 -14509.901429 -17134.143342   -579.614255
PG03  23073.775594 -12980.992597   1132.087275    -90.222619
PG04  19642.485129  -2684.940385 -17694.314499   -182.052753
PG05 -20709.873018   -741.325702 -16869.292289    -34.431028
PG06  -6062.826272 -24396.526582  -8424.105043     -1.952907
PG07   7146.806756 -22971.789868 -10351.303186     68.014724
PG08  23514.482743   2888.547969  12308.655092    -11.297992
PG09   9282.824982 -12440.709875 -21612.901293   -325.361767
PG10  -1897.039047  17304.926400  20091.134791    -67.237855
PG11  16119.296608  -3257.451268  20367.138508    -17.142322
PG12 -24456.375262   8810.178968   4784.135600     -4.843154
PG13 -22829.310262 -12838.014957   4661.270765    100.267023
PG14   4331.355737 -17745.856774  19267.674519     98.383773
PG15 -23782.425215   -259.168764  11821.572471   -167.595523
PG16  19395.657383   4230.417890 -18108.361684   -284.146328
PG17  -7787.500506 -18761.162352  17542.987010    398.719510
PG18  -5517.791847  24727.715105  -7878.498030    348.419398
PG19 -15045.153949 -19090.682470  10532.910044    -34.964969
PG20 -12200.202329  20576.179401  11194.347185    524.560036
PG21  15589.729294  -1522.910146  22182.261123     97.812740
PG22  23219.320222  -7727.478722  10302.380401   -673.944908
PG23 -12804.066940  19091.042187  13248.974089    118.385217
PG24 -15130.094814   4877.451844  20998.169048      1.963538
PG25 -18116.396357  17547.437087  -8116.123236     85.872050
PG26  10935.157383  11408.001879 -21419.771430     48.764377
PG27  23601.130447  12599.681410    542.893970    -81.532425
PG28   1760.459920 -16775.049486  21123.345958    611.713987
PG29  -9861.132554  11070.439497 -22080.615409   -299.918655
PG30   -513.230257 -26415.011981   1005.547445   -388.788963
PG31   7633.232987  22709.668195 -11023.940584   -101.700877
PG32  10169.846151  18547.079019  16262.936460     19.590435
PJ01 -29599.390169  24295.858932  22757.089088   -342.822854
PJ02 -34521.412286  24014.477035   8162.846958      2.277314
PJ03 -21845.334907  19863.840870 -25487.623426     -0.988572
PR01  22603.366306   4973.440983  10712.428994     75.407564
PR02  22990.194488  -4391.176308 -10172.842043    468.091818
PR03   8550.433010 -10220.586504 -21719.137535     31.231284
PR04 -10561.393185  -9959.653161 -20945.455750     75.062498
PR05 -23679.468076  -4313.738961  -8400.657925     66.957657
PR07  -7758.072882  10356.912793  22010.337429    -42.497134
PR08  10602.769761  10092.014919  20949.875548    -57.551469
PR09 -16062.265413  15084.511120  12920.623665    -20.406994
PR11    235.102964  17362.500596 -18682.255513      2.931397
PR12  11607.927315   1538.623606 -22644.233175    207.198551
PR13  15883.481948 -14760.715850 -13461.284690    -51.098157
PR14  10915.138684 -22654.615313   4258.504974     61.285820
PR15   -342.672697 -17155.810073  18890.329123    105.255191
PR16 -12134.106311   -589.630760  22383.836375    -11.658206
PR17   -530.853969 -17932.892374  18161.060998    402.375387
PR18 -10753.937991 -22831.178773   3512.878949     67.549606
PR19 -14840.574372 -16587.619394 -12454.030614   -133.117914
PR20 -10574.639839   1904.928175 -23118.109789   -433.806714
PR21   1296.006524  18577.262514 -17416.485078   -189.642375
PR22  11222.780448  22848.530808  -2340.946894    -99.277880
PR24  10648.270697  -2962.159630  23010.155792     32.551473
EOF
